LEMUR-2-MARHISYAM       
1 60536U 24149BW  25257.44083191  .00007988  00000+0  59013-3 0  9993
2 60536  97.7101 335.0333 0001691 350.2832   9.8360 15.03496312 58932
SATELIOT_4              
1 60537U 24149BX  25257.46273371  .00001313  00000+0  12499-3 0  9990
2 60537  97.7030 332.0072 0001286 195.9765 164.1415 14.95081402 58756
PICO-02A021             
1 60538U 24149BY  25257.00599383  .00004005  00000+0  33300-3 0  9990
2 60538  97.7087 333.4685 0001696 247.7612 112.3431 14.99274112 58294
ICEYE-X43               
1 60539U 24149BZ  25257.52176280  .00002036  00000+0  18004-3 0  9991
2 60539  97.7066 333.1696 0002044 265.8434  94.2554 14.97419521 58828
HAWK-10A                
1 60540U 24149CA  25257.45345832  .00001012  00000+0  97351-4 0  9992
2 60540  97.7177 332.9133 0002133 277.2007  82.8971 14.95184746 58763
UMBRA-09                
1 60541U 24149CB  25257.47487308  .00007738  00000+0  51915-3 0  9996
2 60541  97.7180 336.8620 0001956 188.8865 171.2328 15.07115252 59033
QPS-SAR-8 (AMATERU-IV)  
1 60542U 24149CC  25257.18071672  .00003875  00000+0  31592-3 0  9995
2 60542  97.7139 333.9350 0003488 322.7073  37.3908 15.00057720 58839
ARCTIC WEATHER SATELLITE
1 60543U 24149CD  25257.44329742  .00000739  00000+0  82716-4 0  9990
2 60543  97.7114 330.3065 0001027 344.9687  15.1500 14.89766933 58247
CAPELLA-15 (ACADIA-5)   
1 60544U 24149CE  25257.15986860  .00006089  00000+0  59947-3 0  9992
2 60544  97.7065 331.4936 0004588 262.4984  97.5714 14.92423514 58689
HAWK-10B                
1 60545U 24149CF  25257.45329895  .00001007  00000+0  96828-4 0  9990
2 60545  97.7105 332.5369 0004206 302.2552  57.8261 14.95185615 58763
ICEYE-X39               
1 60546U 24149CG  25257.48591179  .00002968  00000+0  26009-3 0  9990
2 60546  97.7058 333.2207 0002755 280.5398  79.5513 14.97424094 58820
UMBRA-10                
1 60547U 24149CH  25257.47443509  .00009066  00000+0  60757-3 0  9997
2 60547  97.7189 336.8648 0001901 156.6071 203.5243 15.07107170 59046
ICEYE-X33               
1 60548U 24149CJ  25257.47160624  .00002772  00000+0  23444-3 0  9991
2 60548  97.7091 334.0389 0004264 282.2405  77.8340 14.98871105 58867
ICEYE-X40               
1 60549U 24149CK  25257.17488852  .00001278  00000+0  11710-3 0  9998
2 60549  97.7091 332.9447 0003166 290.5469  69.5413 14.96662072 58770
SATELIOT_1              
1 60550U 24149CL  25256.76355268  .00002406  00000+0  21746-3 0  9992
2 60550  97.7034 332.1442 0005102 283.0046  77.0606 14.96381922 58709
BRO-14                  
1 60551U 24149CM  25257.17375680  .00001279  00000+0  12181-3 0  9999
2 60551  97.7156 332.6670 0005480 308.8600  51.2131 14.95113983 58733
SATELIOT_3              
1 60552U 24149CN  25257.47979424  .00001962  00000+0  17802-3 0  9993
2 60552  97.7089 333.3803 0004326 295.0412  65.0360 14.96439041 58825
BRO-15                  
1 60553U 24149CP  25257.49657651  .00001153  00000+0  10973-3 0  9995
2 60553  97.7087 332.8172 0006629 293.6098  66.4427 14.95325465 58797
UM5-RIBAT               
1 60554U 24149CQ  25257.16039493  .00003171  00000+0  27054-3 0  9998
2 60554  97.7037 333.3801 0006015 275.1703  84.8833 14.98414949 58812
UM5-EOSAT               
1 60555U 24149CR  25257.47239012  .00002504  00000+0  21223-3 0  9993
2 60555  97.7096 334.2269 0007459 283.4727  76.5664 14.98863716 58873
LASARSAT                
1 62391U 24247Q   25257.31870291  .00014189  00000+0  50488-3 0  9992
2 62391  44.9825 351.9724 0009026 263.8249  96.1606 15.28904685 40850
CROCUBE                 
1 62394U 24247T   25257.29680380  .00014402  00000+0  50709-3 0  9994
2 62394  44.9781 351.7673 0009697 272.5440  87.4334 15.29231481 40858
TEVEL2-4                
1 63213U 25052D   25257.14445447  .00009958  00000+0  42822-3 0  9994
2 63213  97.4169 149.8602 0004302  41.8088 318.3476 15.22835663 27935
TEVEL2-5                
1 63214U 25052E   25257.47531572  .00011003  00000+0  47315-3 0  9992
2 63214  97.4171 150.1821 0004263  41.3986 318.7573 15.22808070 27984
TEVEL2-6                
1 63215U 25052F   25257.61142466  .00010902  00000+0  46935-3 0  9993
2 63215  97.4172 150.3087 0004339  41.7070 318.4496 15.22770833 28004
TEVEL2-1                
1 63217U 25052H   25257.44014841  .00010290  00000+0  44659-3 0  9992
2 63217  97.4147 150.0201 0004938  49.4544 310.7121 15.22509617 27974
TEVEL2-3                
1 63218U 25052J   25256.65153528  .00011727  00000+0  50855-3 0  9992
2 63218  97.4147 149.2439 0005014  51.2956 308.8729 15.22502083 27851
TEVEL2-2                
1 63219U 25052K   25257.44085756  .00010338  00000+0  44871-3 0  9996
2 63219  97.4148 150.0205 0004964  49.7253 310.4417 15.22506193 27971
TEVEL2-9                
1 63237U 25052AD  25257.45392301  .00010212  00000+0  46011-3 0  9993
2 63237  97.4208 149.8521 0009359  48.4140 311.7897 15.21203483 27958
TEVEL2-7                
1 63238U 25052AE  25255.68469837  .00009556  00000+0  43231-3 0  9996
2 63238  97.4213 148.0964 0009611  53.7639 306.4484 15.21079568 27688
TEVEL2-8                
1 63239U 25052AF  25257.59643094  .00010586  00000+0  47842-3 0  9995
2 63239  97.4211 149.9696 0009429  48.1269 312.0770 15.21087701 27974
HADES-ICM               
1 63492U 25052BN  25256.95305530  .00025780  00000+0  94852-3 0  9990
2 63492  97.4161 150.2530 0012823  48.7413 311.4929 15.27774137 27948
